{
    "links": {
        "self": "http://www.neowsapp.com/rest/v1/neo/3709251?api_key=iIulBulltgU6a56xZRHN4H3l9WmuAYTsLGpBGhQ2"
    },
    "id": "3709251",
    "neo_reference_id": "3709251",
    "name": "(2015 BA513)",
    "designation": "2015 BA513",
    "nasa_jpl_url": "http://ssd.jpl.nasa.gov/sbdb.cgi?sstr=3709251",
    "absolute_magnitude_h": 25.8,
    "estimated_diameter": {
        "kilometers": {
            "estimated_diameter_min": 0.0183888672,
            "estimated_diameter_max": 0.0411187571
        },
        "meters": {
            "estimated_diameter_min": 18.388867207,
            "estimated_diameter_max": 41.1187571041
        },
        "miles": {
            "estimated_diameter_min": 0.0114263088,
            "estimated_diameter_max": 0.0255500032
        },
        "feet": {
            "estimated_diameter_min": 60.3309310875,
            "estimated_diameter_max": 134.9040630575
        }
    },
    "is_potentially_hazardous_asteroid": false,
    "close_approach_data": [
        {
            "close_approach_date": "2012-06-22",
            "close_approach_date_full": "2012-Jun-22 13:29",
            "epoch_date_close_approach": 1340371740000,
            "relative_velocity": {
                "kilometers_per_second": "27.8431328516",
                "kilometers_per_hour": "100235.2782657514",
                "miles_per_hour": "62282.3038757387"
            },
            "miss_distance": {
                "astronomical": "0.2021368931",
                "lunar": "78.6312514159",
                "kilometers": "30239248.656177697",
                "miles": "18789797.8204463386"
            },
            "orbiting_body": "Earth"
        },
        {
            "close_approach_date": "2015-01-18",
            "close_approach_date_full": "2015-Jan-18 16:32",
            "epoch_date_close_approach": 1421598720000,
            "relative_velocity": {
                "kilometers_per_second": "22.0501610255",
                "kilometers_per_hour": "79380.5796919318",
                "miles_per_hour": "49324.0051980228"
            },
            "miss_distance": {
                "astronomical": "0.0095464464",
                "lunar": "3.7135676496",
                "kilometers": "1428128.047509168",
                "miles": "887397.6195477984"
            },
            "orbiting_body": "Moon"
        },
        {
            "close_approach_date": "2015-01-18",
            "close_approach_date_full": "2015-Jan-18 21:31",
            "epoch_date_close_approach": 1421616660000,
            "relative_velocity": {
                "kilometers_per_second": "21.6900339291",
                "kilometers_per_hour": "78084.1221446452",
                "miles_per_hour": "48518.4368959324"
            },
            "miss_distance": {
                "astronomical": "0.0102168699",
                "lunar": "3.9743623911",
                "kilometers": "1528421.975107113",
                "miles": "949717.3763516394"
            },
            "orbiting_body": "Earth"
        },
        {
            "close_approach_date": "2049-06-09",
            "close_approach_date_full": "2049-Jun-09 02:46",
            "epoch_date_close_approach": 2506819560000,
            "relative_velocity": {
                "kilometers_per_second": "36.4356910236",
                "kilometers_per_hour": "131168.4876849305",
                "miles_per_hour": "81502.9972506725"
            },
            "miss_distance": {
                "astronomical": "0.4877071996",
                "lunar": "189.7181006444",
                "kilometers": "72959958.243824852",
                "miles": "45335215.8308208776"
            },
            "orbiting_body": "Earth"
        }
    ],
    "orbital_data": {
        "orbit_id": "4",
        "orbit_determination_date": "2019-07-18 07:27:16",
        "first_observation_date": "2015-01-21",
        "last_observation_date": "2015-01-28",
        "data_arc_in_days": 7,
        "observations_used": 17,
        "orbit_uncertainty": "8",
        "minimum_orbit_intersection": ".00663908",
        "jupiter_tisserand_invariant": "3.804",
        "epoch_osculation": "2457047.5",
        "eccentricity": ".6999837263608905",
        "semi_major_axis": "1.747182644361868",
        "inclination": "4.075820300530498",
        "ascending_node_longitude": "293.231319732988",
        "orbital_period": "843.5404001737888",
        "perihelion_distance": ".5241832263283732",
        "perihelion_argument": "87.75026998682837",
        "aphelion_distance": "2.970182062395363",
        "perihelion_time": "2456994.426370614927",
        "mean_anomaly": "22.65037522173199",
        "mean_motion": ".4267726832358375",
        "equinox": "J2000",
        "orbit_class": {
            "orbit_class_type": "APO",
            "orbit_class_description": "Near-Earth asteroid orbits which cross the Earth’s orbit similar to that of 1862 Apollo",
            "orbit_class_range": "a (semi-major axis) > 1.0 AU; q (perihelion) < 1.017 AU"
        }
    },
    "is_sentry_object": false
}